STF1                                                                 
1 77777U 17077A   17180.70833333  .00000000  00000-0  46471-4 0    58
2 77777  85.9976  75.0000 0012644 249.2390 287.5576 15.24071118    76
# Epoch 6/29/2017 17:00:00 UTC, semi-major axis 6878 km (500 km altitude @ equator), inclination 86 degrees

